{
  "norad_id": 68318,
  "name": "STARLINK-37113",
  "history": [
    {
      "epoch": "2026-03-28T20:00:01.999872Z",
      "apogee_km": 262.70055148733536,
      "perigee_km": 261.419391883619,
      "latitude_deg": -75.87853894373339,
      "longitude_deg": 115.03602033936906,
      "height_km": 290.05953488834365,
      "semi_major_axis_km": 6640.196971685477,
      "eccentricity": 9.647e-05,
      "inclination_deg": 97.2782,
      "raan_deg": 210.9756,
      "arg_perigee_deg": 70.5301,
      "mean_anomaly_deg": 211.7389,
      "mean_motion_rev_day": 16.04468956
    }
  ]
}